ISS OBJECT XW           
1 66910U 98067XW  26053.26579578  .00116878  00000+0  11799-2 0  9996
2 66910  51.6248 143.9045 0003851  10.7232 349.3844 15.64464608 12763
ISS OBJECT XX           
1 66911U 98067XX  26053.25539373  .00183247  00000+0  15547-2 0  9994
2 66911  51.6237 143.0795 0005802   3.8203 356.2837 15.68529645 12760
ISS OBJECT XY           
1 66912U 98067XY  26053.29255926  .00082068  00000+0  96049-3 0  9994
2 66912  51.6274 144.8438 0001903  15.9273 344.1780 15.60836405 12742
ISS OBJECT XZ           
1 67683U 98067XZ  26053.26547079  .00041343  00000+0  71406-3 0  9991
2 67683  51.6314 148.4121 0010005 134.8539 225.3264 15.50521186  2394
GXIBA-1                 
1 67684U 98067YA  26053.25670842  .00075787  00000+0  12369-2 0  9997
2 67684  51.6312 148.3544 0011635 127.1262 233.0792 15.51827833  2390
CORAL                   
1 67685U 98067YB  26053.26386880  .00043964  00000+0  75228-3 0  9991
2 67685  51.6309 148.4008 0011960 131.3662 228.8357 15.50732756  2392
ISS OBJECT YC           
1 67686U 98067YC  26053.26221280  .00051037  00000+0  86445-3 0  9997
2 67686  51.6313 148.3904 0007688 102.1023 258.0827 15.50999605  2396
LEOPARD                 
1 67687U 98067YD  26053.26453402  .00041560  00000+0  71517-3 0  9995
2 67687  51.6314 148.4060 0007769 105.0443 255.1406 15.50644327  2311
ISS OBJECT YE           
1 67688U 98067YE  26053.26289914  .00047740  00000+0  81295-3 0  9991
2 67688  51.6324 148.3958 0007695 103.3001 256.8847 15.50878079  2317
CREW DRAGON 12          
1 67796U 26031A   26052.76529869  .00010666  00000+0  20704-3 0  9998
2 67796  51.6320 151.0701 0008511 119.8639 240.3195 15.48189327553837
