CCSDS_OMM_VERS = 2.0
CREATION_DATE  = 
ORIGINATOR     = 

OBJECT_NAME    = ISS OBJECT XW
OBJECT_ID      = 1998-067XW
CENTER_NAME    = EARTH
REF_FRAME      = TEME
TIME_SYSTEM    = UTC
MEAN_ELEMENT_THEORY = SGP/SGP4

EPOCH          = 2026-02-22T06:22:44.755392
MEAN_MOTION    = 15.64464608
ECCENTRICITY   = .0003851
INCLINATION    = 51.6248
RA_OF_ASC_NODE = 143.9045
ARG_OF_PERICENTER = 10.7232
MEAN_ANOMALY   = 349.3844

EPHEMERIS_TYPE = 0
CLASSIFICATION_TYPE = U
NORAD_CAT_ID   = 66910
ELEMENT_SET_NO = 999
REV_AT_EPOCH   = 1276
BSTAR          = .11799E-2
MEAN_MOTION_DOT = .116878E-2
MEAN_MOTION_DDOT = 0

CCSDS_OMM_VERS = 2.0
CREATION_DATE  = 
ORIGINATOR     = 

OBJECT_NAME    = ISS OBJECT XX
OBJECT_ID      = 1998-067XX
CENTER_NAME    = EARTH
REF_FRAME      = TEME
TIME_SYSTEM    = UTC
MEAN_ELEMENT_THEORY = SGP/SGP4

EPOCH          = 2026-02-22T06:07:46.018272
MEAN_MOTION    = 15.68529645
ECCENTRICITY   = .0005802
INCLINATION    = 51.6237
RA_OF_ASC_NODE = 143.0795
ARG_OF_PERICENTER = 3.8203
MEAN_ANOMALY   = 356.2837

EPHEMERIS_TYPE = 0
CLASSIFICATION_TYPE = U
NORAD_CAT_ID   = 66911
ELEMENT_SET_NO = 999
REV_AT_EPOCH   = 1276
BSTAR          = .15547E-2
MEAN_MOTION_DOT = .183247E-2
MEAN_MOTION_DDOT = 0

CCSDS_OMM_VERS = 2.0
CREATION_DATE  = 
ORIGINATOR     = 

OBJECT_NAME    = ISS OBJECT XY
OBJECT_ID      = 1998-067XY
CENTER_NAME    = EARTH
REF_FRAME      = TEME
TIME_SYSTEM    = UTC
MEAN_ELEMENT_THEORY = SGP/SGP4

EPOCH          = 2026-02-22T07:01:17.120064
MEAN_MOTION    = 15.60836405
ECCENTRICITY   = .0001903
INCLINATION    = 51.6274
RA_OF_ASC_NODE = 144.8438
ARG_OF_PERICENTER = 15.9273
MEAN_ANOMALY   = 344.1780

EPHEMERIS_TYPE = 0
CLASSIFICATION_TYPE = U
NORAD_CAT_ID   = 66912
ELEMENT_SET_NO = 999
REV_AT_EPOCH   = 1274
BSTAR          = .96049E-3
MEAN_MOTION_DOT = .82068E-3
MEAN_MOTION_DDOT = 0

CCSDS_OMM_VERS = 2.0
CREATION_DATE  = 
ORIGINATOR     = 

OBJECT_NAME    = ISS OBJECT XZ
OBJECT_ID      = 1998-067XZ
CENTER_NAME    = EARTH
REF_FRAME      = TEME
TIME_SYSTEM    = UTC
MEAN_ELEMENT_THEORY = SGP/SGP4

EPOCH          = 2026-02-22T06:22:16.676256
MEAN_MOTION    = 15.50521186
ECCENTRICITY   = .0010005
INCLINATION    = 51.6314
RA_OF_ASC_NODE = 148.4121
ARG_OF_PERICENTER = 134.8539
MEAN_ANOMALY   = 225.3264

EPHEMERIS_TYPE = 0
CLASSIFICATION_TYPE = U
NORAD_CAT_ID   = 67683
ELEMENT_SET_NO = 999
REV_AT_EPOCH   = 239
BSTAR          = .71406E-3
MEAN_MOTION_DOT = .41343E-3
MEAN_MOTION_DDOT = 0

CCSDS_OMM_VERS = 2.0
CREATION_DATE  = 
ORIGINATOR     = 

OBJECT_NAME    = GXIBA-1
OBJECT_ID      = 1998-067YA
CENTER_NAME    = EARTH
REF_FRAME      = TEME
TIME_SYSTEM    = UTC
MEAN_ELEMENT_THEORY = SGP/SGP4

EPOCH          = 2026-02-22T06:09:39.607488
MEAN_MOTION    = 15.51827833
ECCENTRICITY   = .0011635
INCLINATION    = 51.6312
RA_OF_ASC_NODE = 148.3544
ARG_OF_PERICENTER = 127.1262
MEAN_ANOMALY   = 233.0792

EPHEMERIS_TYPE = 0
CLASSIFICATION_TYPE = U
NORAD_CAT_ID   = 67684
ELEMENT_SET_NO = 999
REV_AT_EPOCH   = 239
BSTAR          = .12369E-2
MEAN_MOTION_DOT = .75787E-3
MEAN_MOTION_DDOT = 0

CCSDS_OMM_VERS = 2.0
CREATION_DATE  = 
ORIGINATOR     = 

OBJECT_NAME    = CORAL
OBJECT_ID      = 1998-067YB
CENTER_NAME    = EARTH
REF_FRAME      = TEME
TIME_SYSTEM    = UTC
MEAN_ELEMENT_THEORY = SGP/SGP4

EPOCH          = 2026-02-22T06:19:58.264320
MEAN_MOTION    = 15.50732756
ECCENTRICITY   = .001196
INCLINATION    = 51.6309
RA_OF_ASC_NODE = 148.4008
ARG_OF_PERICENTER = 131.3662
MEAN_ANOMALY   = 228.8357

EPHEMERIS_TYPE = 0
CLASSIFICATION_TYPE = U
NORAD_CAT_ID   = 67685
ELEMENT_SET_NO = 999
REV_AT_EPOCH   = 239
BSTAR          = .75228E-3
MEAN_MOTION_DOT = .43964E-3
MEAN_MOTION_DDOT = 0

CCSDS_OMM_VERS = 2.0
CREATION_DATE  = 
ORIGINATOR     = 

OBJECT_NAME    = ISS OBJECT YC
OBJECT_ID      = 1998-067YC
CENTER_NAME    = EARTH
REF_FRAME      = TEME
TIME_SYSTEM    = UTC
MEAN_ELEMENT_THEORY = SGP/SGP4

EPOCH          = 2026-02-22T06:17:35.185920
MEAN_MOTION    = 15.50999605
ECCENTRICITY   = .0007688
INCLINATION    = 51.6313
RA_OF_ASC_NODE = 148.3904
ARG_OF_PERICENTER = 102.1023
MEAN_ANOMALY   = 258.0827

EPHEMERIS_TYPE = 0
CLASSIFICATION_TYPE = U
NORAD_CAT_ID   = 67686
ELEMENT_SET_NO = 999
REV_AT_EPOCH   = 239
BSTAR          = .86445E-3
MEAN_MOTION_DOT = .51037E-3
MEAN_MOTION_DDOT = 0

CCSDS_OMM_VERS = 2.0
CREATION_DATE  = 
ORIGINATOR     = 

OBJECT_NAME    = LEOPARD
OBJECT_ID      = 1998-067YD
CENTER_NAME    = EARTH
REF_FRAME      = TEME
TIME_SYSTEM    = UTC
MEAN_ELEMENT_THEORY = SGP/SGP4

EPOCH          = 2026-02-22T06:20:55.739328
MEAN_MOTION    = 15.50644327
ECCENTRICITY   = .0007769
INCLINATION    = 51.6314
RA_OF_ASC_NODE = 148.4060
ARG_OF_PERICENTER = 105.0443
MEAN_ANOMALY   = 255.1406

EPHEMERIS_TYPE = 0
CLASSIFICATION_TYPE = U
NORAD_CAT_ID   = 67687
ELEMENT_SET_NO = 999
REV_AT_EPOCH   = 231
BSTAR          = .71517E-3
MEAN_MOTION_DOT = .4156E-3
MEAN_MOTION_DDOT = 0

CCSDS_OMM_VERS = 2.0
CREATION_DATE  = 
ORIGINATOR     = 

OBJECT_NAME    = ISS OBJECT YE
OBJECT_ID      = 1998-067YE
CENTER_NAME    = EARTH
REF_FRAME      = TEME
TIME_SYSTEM    = UTC
MEAN_ELEMENT_THEORY = SGP/SGP4

EPOCH          = 2026-02-22T06:18:34.485696
MEAN_MOTION    = 15.50878079
ECCENTRICITY   = .0007695
INCLINATION    = 51.6324
RA_OF_ASC_NODE = 148.3958
ARG_OF_PERICENTER = 103.3001
MEAN_ANOMALY   = 256.8847

EPHEMERIS_TYPE = 0
CLASSIFICATION_TYPE = U
NORAD_CAT_ID   = 67688
ELEMENT_SET_NO = 999
REV_AT_EPOCH   = 231
BSTAR          = .81295E-3
MEAN_MOTION_DOT = .4774E-3
MEAN_MOTION_DDOT = 0

CCSDS_OMM_VERS = 2.0
CREATION_DATE  = 
ORIGINATOR     = 

OBJECT_NAME    = CREW DRAGON 12
OBJECT_ID      = 2026-031A
CENTER_NAME    = EARTH
REF_FRAME      = TEME
TIME_SYSTEM    = UTC
MEAN_ELEMENT_THEORY = SGP/SGP4

EPOCH          = 2026-02-21T18:22:01.806816
MEAN_MOTION    = 15.48189327
ECCENTRICITY   = .00085118
INCLINATION    = 51.6320
RA_OF_ASC_NODE = 151.0701
ARG_OF_PERICENTER = 119.8639
MEAN_ANOMALY   = 240.3195

EPHEMERIS_TYPE = 0
CLASSIFICATION_TYPE = U
NORAD_CAT_ID   = 67796
ELEMENT_SET_NO = 999
REV_AT_EPOCH   = 55383
BSTAR          = .20704396E-3
MEAN_MOTION_DOT = .10666E-3
MEAN_MOTION_DDOT = 0

